CSS (TIANHE)            
1 48274U 21035A   24191.02050049  .00033655  00000+0  35207-3 0  9994
2 48274  41.4689 309.8460 0004225 357.8680   2.2141 15.63729029182510
